#dP2019  8 13  0  0  0.00000000      96 __u+U IGS08 FIT  IAC
## 2066 172800.00000000   900.00000000 58708 0.0000000000000
+  114   C01C02C03C04C05C06C07C08C09C10C11C12C13C14C16C19C20
+        C21C22C23C24C25C26C27C28C29C30C32C33C34C35C36E01E02
+        E03E04E05E07E08E09E11E12E13E14E15E18E19E21E24E25E26
+        E27E30E31E33E36G01G02G03G04G05G06G07G08G09G10G11G12
+        G13G14G15G16G17G18G19G20G21G22G23G24G25G26G27G28G29
+        G30G31G32J01J02J03J07R01R02R03R04R05R07R08R09R11R12
+        R13R14R15R16R17R18R19R20R21R22R23R24  0  0  0  0  0
++        14 13 13 13 13  9  8  8  8  8  8  7  8  7  9  7  7
++         7  7  8  8  8  8  8  8  8  8  8  8 10  9  9  4  4
++         4  4  4  5  4  4  4  4  4  4  4  4  4  4  4  4  4
++         4  4  4  4  4  3  3  3  3  3  3  3  3  3  3  3  3
++         3  3  3  3  3  3  3  3  3  3  3  3  3  3  3  3  3
++         3  3  3 10  8  8 14  6  5  5  5  5  5  5  7  5  5
++         6  5  5  6  5  5  6  6  5  5  5  6  0  0  0  0  0
%c M  cc GPS ccc cccc cccc cccc cccc ccccc ccccc ccccc ccccc
%c cc cc ccc ccc cccc cccc cccc cccc ccccc ccccc ccccc ccccc
%f  1.2500000  1.025000000  0.00000000000  0.000000000000000
%f  0.0000000  0.000000000  0.00000000000  0.000000000000000
%i    0    0    0    0      0      0      0      0         0
%i    0    0    0    0      0      0      0      0         0
/* INFORMATION & ANALYSIS CENTER (IAC)            FINAL DATA
/* S/V CLOCKS ARE ALIGNED TO GPS & GLONASS TIME RESPECTIVELY
/* USING THE BROADCAST EPHEMERIS                            
/* PCV:IGS14_2062 OL/AL:FES2004  NONE     YN ORB:CoN CLK:CoN
*  2019 08 13 20 15  0.00000000
PC01 -32250.588537  27155.505430    686.927858    253.705645
PC02   4361.663814  41923.329398   -917.483801    -26.527578
PC03 -14742.667422  39481.829542   -372.329370   -206.856619
PC04 -39592.160573  14524.844300    141.362118    135.840175
PC05  21929.564021  35972.959546  -1110.108505   -215.426677
PC06 -13136.891963  38912.271798  -8338.445541    477.491687
PC07  -8847.921357  25282.908438  32791.196217    -63.791787
PC08 -24940.241119  24726.516579 -23489.906365    166.475986
PC09  -5786.499160  41327.641125   4741.066234   -112.040246
PC10   4658.182044  30911.818465  28639.692568    -78.368546
PC11  -7444.478044 -15433.361946  22059.130150    215.018625
PC12  13919.753899 -24105.468219   1183.301842   -227.520159
PC13 -11023.448346  26435.668800 -30984.241456   -909.926228
PC14  -9263.663562 -25635.804765   6138.449405    511.626946
PC16 -12045.830276  39560.582352  -7739.861154   -877.923204
PC19  18960.715299  16323.857567  12404.917549    171.764188
PC20  10511.818427  25462.228010  -4553.931918     32.251845
PC21   4502.990764 -19664.618103  19289.947460    362.311243
PC22  16512.685363  -2387.154274  22380.572249     12.039193
PC23 -26713.369542   3975.712994   7012.344137   -923.712018
PC24  -7761.461264 -15673.516897 -21742.352395   -935.294809
PC25 -24834.325244  -7518.809837 -10282.761644   -313.646885
PC26  12456.869600 -14299.891024 -20461.390679    350.657535
PC27 -14337.239098  23908.121551  -1084.629962    171.077282
PC28 -20119.142658  11625.044521  15462.760207    165.143346
PC29  14412.176972   6858.265798 -22899.033185    103.965540
PC30    500.418866  22260.482962 -16814.642734    175.012549
PC32  -4304.060839  19750.820856 -19229.042724   -904.441485
PC33 -19015.325154 -16267.766430 -12320.486943   -307.139912
PC34   -638.773382 -22161.539703  16951.326163      3.974022
PC35  19756.843120 -12216.346862 -15486.900957   -231.451784
PC36  24562.159575   8203.132294  10454.354160   -694.636153
PE01 -18024.693880   7797.203837  22149.256037   -667.908168
PE02  17978.623481  -7831.854798 -22167.472559     73.824424
PE03  12688.633474 -17672.943518  20068.304925   -199.183388
PE04   -763.653782  29194.730956  -4826.430835   -343.789806
PE05  17266.967683   4297.488042  23661.548369   -457.790613
PE07 -11720.308253 -23638.133099 -13395.047873   -245.628220
PE08    437.622641 -29206.839342   4746.138938   6308.221878
PE09  11855.789682  23537.994372  13502.824791   6348.769159
PE11  11015.215074  12221.822087 -24617.150050   5625.955256
PE12  -9172.251004  21508.142149 -18146.590645   6249.843998
PE13 -10891.616644 -12202.655531  24669.012285    391.392063
PE14 -12529.744383  21364.029497   6961.866856   -680.233548
PE15   8767.978572 -21450.403413  18416.033888    899.495180
PE18  20440.023126 -15063.225899 -17969.543923   -775.082646
PE19 -13414.132879  15771.690972 -21146.123997     -4.566895
PE21 -27672.774842  -6994.435205   7821.739887   -549.291475
PE24  21025.673337  17757.045180  10882.453174   5925.758464
PE25  27688.490904   7066.922764  -7731.771468   1711.829893
PE26 -24362.100711   4034.082341  16324.958649   4227.630149
PE27 -20981.715220 -17682.936963 -11085.551076    408.862005
PE30  -2018.746971 -18059.210948 -23368.597671   4631.494265
PE31   2000.207150  17974.703946  23447.016089   -467.327168
PE33 -23341.208597  18152.176486  -1355.843425   -469.826289
PE36  24223.617912  -4223.489080 -16479.410637    675.249582
PG01   1360.704261  15084.288900 -21992.843892    -95.781948
PG02  18535.479951 -15485.812740  11497.884775   -282.188774
PG03  10396.056418  21368.624650 -12008.226760     -1.366223
PG04 -12919.212653  17018.036126  15117.357107     91.146122
PG05   8771.048529 -12717.768004  21464.653003     -0.597922
PG06  25784.009034  -5872.146704  -2608.285375    -23.951646
PG07  17243.772416   8858.241104  18637.733568    -84.532163
PG08  -4392.975087  25997.674212  -2043.624806     -2.534133
PG09  10007.096271  16002.606042  18641.883085     -5.813219
PG10 -21771.702539  -8176.272726 -12956.457628    -13.121296
PG11  -1092.243214  20011.380554 -18088.074055   -535.959373
PG12  -6323.557540 -21399.612291 -14742.456545    214.388033
PG13  12993.201090 -22211.537526   6342.005144    -49.837599
PG14 -16353.188933  11058.202610 -17354.402278    -66.726219
PG15   1698.270566 -26191.650428  -2573.571115   -294.353268
PG16 -10179.233827  10571.776905  21933.602926    -64.708518
PG17  15387.441426  -2619.343661 -21063.978716    106.297538
PG18  -7902.827937  17151.366138 -19137.968272     77.627705
PG19  16580.557150  -8790.072988 -19116.263591   -281.320341
PG20 -22778.727770 -13352.771215  -3726.825520    526.444320
PG21 -20627.723456  -5150.703428  16602.101869   -137.003741
PG22   4242.616018  19833.013516 -16971.459367   -743.418635
PG23   2253.270995  24359.583454  10181.353124   -172.374025
PG24   1065.502626 -16589.960461 -20812.428476     -0.741857
PG25 -17464.252343 -19929.238779  -3460.678374     -7.147551
PG26 -17735.180949   2880.967300  19599.786118     14.328828
PG27 -12126.338269  21007.516050  10345.337380    -22.993912
PG28  20429.300783  10199.855746 -12875.978050    764.806925
PG29  -6264.561045 -18939.174065  17489.365856    125.818748
PG30  24462.479342   1715.512162  10481.020262    -18.974483
PG31 -26017.610056   6419.543772   -694.514986     17.568329
PG32 -15842.768075   2527.623283 -21083.482459     17.906198
PJ01 -19364.866136  23346.659190 -24694.311930   -259.864669
PJ02 -29418.721512  21376.197040  26094.860302     -2.355862
PJ03 -30355.482190  26930.737698  16641.407443     -0.562850
PJ07 -25366.972923  33687.037680    -31.632476     -0.020416
PR01   1208.405471  22166.864097 -12575.504984     48.121779
PR02  10884.126474  21671.721338   7863.790740    383.121578
PR03  12823.676674   7328.227646  20825.737260     -0.070066
PR04   6964.620443 -11739.429309  21569.759704    317.565804
PR05  -2402.995962 -23165.818730  10438.662393     33.775769
PR07 -12741.401066  -6903.763597 -20965.759760    -25.011226
PR08  -7334.785817  10972.318189 -21773.048672     16.208265
PR09 -19330.362644 -10509.600688 -12824.280325     85.213396
PR11 -17416.024748   5131.133629  17911.230493    -75.890305
PR12   -661.331114  10970.241136  23051.066035     52.451332
PR13  17799.474899  10716.804452  14795.645572    -27.093931
PR14  25055.326210   4486.655154  -1813.570951     41.928894
PR15  18137.716210  -4489.547477 -17341.498873    103.507610
PR16    163.452000 -11212.444590 -22931.982507      6.151563
PR17  15662.165924  -3787.755896 -19756.376437    251.641877
PR18  18634.178177 -16350.091105  -6111.493197      3.731280
PR19  12121.994274 -19716.613787  10707.401156    -48.037770
PR20  -3177.651227 -11356.876991  22623.872815   -387.304909
PR21 -15976.331232   4494.690498  19376.413405    -65.794923
PR22 -18130.394129  17548.589801   3294.645563    -32.923214
PR23  -7749.792901  18768.267566 -15455.910343    247.073735
PR24   5050.369148   9832.664379 -23018.750708   -183.652006
EOF
